ONEWEB-0156             
1 48052U 21025L   24135.43786921 -.00000083  00000+0 -26115-3 0  9994
2 48052  87.8898 112.2406 0001975  85.0659 275.0695 13.13473037153319
ONEWEB-0161             
1 48053U 21025M   24135.48708281 -.00000075  00000+0 -24041-3 0  9990
2 48053  87.8902 112.2371 0002216  84.1628 275.9753 13.13470672153251
ONEWEB-0158             
1 48054U 21025N   24135.44898559  .00000013  00000+0  75599-6 0  9992
2 48054  87.8898 112.2363 0001874  87.6394 272.4950 13.13472443153376
ONEWEB-0157             
1 48055U 21025P   24135.47280218  .00000295  00000+0  77257-3 0  9995
2 48055  87.8898 112.2471 0002056  79.5203 280.6158 13.13471006153318
ONEWEB-0162             
1 48056U 21025Q   24135.43630006 -.00000034  00000+0 -12879-3 0  9998
2 48056  87.8893 112.2504 0001893  84.0155 276.1190 13.13471442153282
ONEWEB-0155             
1 48057U 21025R   24135.45692617  .00000398  00000+0  10535-2 0  9994
2 48057  87.8897 112.2562 0002043  86.7305 273.4057 13.13472256153427
ONEWEB-0149             
1 48058U 21025S   24135.47755753  .00000175  00000+0  44322-3 0  9993
2 48058  87.8897 112.2488 0001872  78.8061 281.3279 13.13468253153230
ONEWEB-0148             
1 48059U 21025T   24135.44264506  .00000047  00000+0  92566-4 0  9994
2 48059  87.8900 112.2644 0001985  66.9334 293.2004 13.13473526153356
ONEWEB-0160             
1 48060U 21025U   24135.45851669  .00000342  00000+0  90265-3 0  9990
2 48060  87.8901 112.2573 0001461 113.9593 246.1689 13.13471966153306
ONEWEB-0163             
1 48061U 21025V   24135.44422901  .00000141  00000+0  35017-3 0  9994
2 48061  87.8897 112.2535 0002279  81.6608 278.4779 13.13472799153421
ONEWEB-0159             
1 48062U 21025W   24135.43311204 -.00000147  00000+0 -43621-3 0  9995
2 48062  87.8898 112.2396 0002079  79.4552 280.6811 13.13471754153342
ONEWEB-0164             
1 48063U 21025X   24135.49183823 -.00000202  00000+0 -58914-3 0  9999
2 48063  87.8897 112.2378 0002074  89.8315 270.3052 13.13471435153337
ONEWEB-0167             
1 48064U 21025Y   24135.44503725  .00000115  00000+0  27897-3 0  9999
2 48064  87.8897 112.2586 0002173  82.6208 277.5168 13.13469995153314
ONEWEB-0166             
1 48065U 21025Z   24135.46644172  .00000368  00000+0  97362-3 0  9998
2 48065  87.8896 112.2390 0001912  80.2445 279.8900 13.13471500153396
ONEWEB-0151             
1 48066U 21025AA  24135.46804564  .00000343  00000+0  90517-3 0  9990
2 48066  87.8898 112.2513 0002126  90.0806 270.0566 13.13470744153338
ONEWEB-0170             
1 48067U 21025AB  24135.47596944  .00000212  00000+0  54495-3 0  9992
2 48067  87.8899 112.2517 0002162 103.5461 256.5909 13.13471411153298
ONEWEB-0168             
1 48068U 21025AC  24135.46169415  .00000437  00000+0  11604-2 0  9994
2 48068  87.8901 112.2233 0002048  83.8900 276.2462 13.13472333153308
ONEWEB-0173             
1 48069U 21025AD  24135.45375304  .00000332  00000+0  87500-3 0  9993
2 48069  87.8899 112.2351 0002544  84.7213 275.4206 13.13472334153548
ONEWEB-0171             
1 48070U 21025AE  24135.49025432 -.00000186  00000+0 -54297-3 0  9999
2 48070  87.8901 112.2632 0002175  87.4844 272.6534 13.13471001153369
ONEWEB-0172             
1 48071U 21025AF  24135.46962807  .00000330  00000+0  86905-3 0  9993
2 48071  87.8902 112.2339 0002216  86.9760 273.1623 13.13471193154258
ONEWEB-0174             
1 48072U 21025AG  24135.45217010  .00000278  00000+0  72567-3 0  9992
2 48072  87.8900 112.2517 0001968  82.2293 277.9060 13.13469407153574
ONEWEB-0175             
1 48073U 21025AH  24135.48073563  .00000094  00000+0  22268-3 0  9998
2 48073  87.8894 112.2366 0002224  95.4603 264.6779 13.13471059153235
ONEWEB-0177             
1 48074U 21025AJ  24135.49343044 -.00000264  00000+0 -75745-3 0  9993
2 48074  87.8898 112.2410 0002333  77.5820 282.5570 13.13470853153423
ONEWEB-0178             
1 48075U 21025AK  24135.43486184 -.00000121  00000+0 -36720-3 0  9993
2 48075  87.8902 112.2684 0002206  82.8093 277.3286 13.13471786153469
ONEWEB-0108             
1 48076U 21025AL  24135.47121369  .00000335  00000+0  88363-3 0  9994
2 48076  87.8896 112.2434 0001734  84.9323 275.2004 13.13471124153392
ONEWEB-0169             
1 48077U 21025AM  24135.50294989 -.00000256  00000+0 -73478-3 0  9993
2 48077  87.8897 112.2459 0001740  84.0829 276.0498 13.13471824152055
ONEWEB-0176             
1 48210U 21031A   24135.56536140 -.00000130  00000+0 -38597-3 0  9997
2 48210  87.8954  81.6332 0002033  82.4437 277.6924 13.14505476147990
ONEWEB-0184             
1 48211U 21031B   24135.53841499  .00000256  00000+0  65580-3 0  9990
2 48211  87.8949  81.6235 0002799  99.3321 260.8125 13.14500790147963
ONEWEB-0179             
1 48212U 21031C   24135.35603742 -.00000330  00000+0 -92486-3 0  9998
2 48212  87.8951  81.6614 0002087  79.2814 280.8550 13.14503218147986
ONEWEB-0180             
1 48213U 21031D   24135.54159114  .00000215  00000+0  54497-3 0  9999
2 48213  87.8950  81.6236 0002225  78.3950 281.7429 13.14504871147892
ONEWEB-0218             
1 48214U 21031E   24135.56380727  .00003088  00000+0  82950-2 0  9993
2 48214  87.8947  81.6202 0002845  93.8753 266.2702 13.14486845148054
ONEWEB-0209             
1 48215U 21031F   24135.55269196  .00000022  00000+0  25104-4 0  9994
2 48215  87.8953  81.6561 0002117  77.2681 282.8685 13.14504697148058
ONEWEB-0198             
1 48216U 21031G   24135.53683164  .00000350  00000+0  91042-3 0  9995
2 48216  87.8951  81.6644 0002487  83.5230 276.6183 13.14504503148161
ONEWEB-0189             
1 48217U 21031H   24135.54952084  .00000113  00000+0  26983-3 0  9996
2 48217  87.8951  81.6377 0002576  81.8175 278.3247 13.14505206147905
ONEWEB-0196             
1 48218U 21031J   24135.37507695  .00000337  00000+0  87345-3 0  9999
2 48218  87.8952  81.6754 0002127  84.4826 275.6546 13.14505246147883
ONEWEB-0183             
1 48219U 21031K   24135.57805703 -.00000161  00000+0 -46849-3 0  9994
2 48219  87.8950  81.6517 0002043  78.0683 282.0676 13.14501537148006
ONEWEB-0185             
1 48220U 21031L   24135.37586159  .00000337  00000+0  87337-3 0  9995
2 48220  87.8950  81.6647 0002140  76.8930 283.2439 13.14505782147905
ONEWEB-0187             
1 48221U 21031M   24135.57408656 -.00000200  00000+0 -57467-3 0  9995
2 48221  87.8951  81.6572 0002064  77.3871 282.7489 13.14505124147942
ONEWEB-0192             
1 48222U 21031N   24135.55429466  .00000090  00000+0  20852-3 0  9999
2 48222  87.8952  81.6583 0002211  82.6959 277.4422 13.14505215147855
ONEWEB-0219             
1 48223U 21031P   24135.38141929  .00000328  00000+0  84946-3 0  9994
2 48223  87.8952  81.6672 0002152  77.5176 282.6194 13.14502011148039
ONEWEB-0202             
1 48224U 21031Q   24135.36239684  .00000153  00000+0  37881-3 0  9991
2 48224  87.8949  81.6906 0002907  86.8690 273.2772 13.14504942148019
ONEWEB-0204             
1 48225U 21031R   24135.54871403  .00000112  00000+0  26711-3 0  9998
2 48225  87.8951  81.6658 0001679  73.3387 286.7927 13.14505676147932
ONEWEB-0205             
1 48226U 21031S   24135.37190336  .00000292  00000+0  75239-3 0  9997
2 48226  87.8950  81.6719 0002226  77.7079 282.4300 13.14505167147927
ONEWEB-0206             
1 48227U 21031T   24135.57329307 -.00000183  00000+0 -52829-3 0  9993
2 48227  87.8947  81.6218 0002111  75.2920 284.8444 13.14505731147909
ONEWEB-0182             
1 48228U 21031U   24135.56854448 -.00000128  00000+0 -38095-3 0  9990
2 48228  87.8952  81.6484 0001843  78.0123 282.1213 13.14503846148112
ONEWEB-0186             
1 48229U 21031V   24135.35128281 -.00000073  00000+0 -23167-3 0  9990
2 48229  87.8950  81.6561 0002124  82.8324 277.3047 13.14505778148034
ONEWEB-0181             
1 48230U 21031W   24135.55744722  .00000044  00000+0  84477-4 0  9996
2 48230  87.8953  81.6843 0002169  83.1362 277.0014 13.14504191147912
ONEWEB-0188             
1 48231U 21031X   24135.36713975  .00000228  00000+0  58132-3 0  9994
2 48231  87.8949  81.7184 0002052  80.2472 279.8889 13.14506362147796
ONEWEB-0220             
1 48232U 21031Y   24135.55903527 -.00000058  00000+0 -18982-3 0  9992
2 48232  87.8946  81.6468 0002250  73.1568 286.9808 13.14504835148081
ONEWEB-0165             
1 48233U 21031Z   24135.35922253  .00000068  00000+0  14807-3 0  9999
2 48233  87.8949  81.7009 0002261  81.1242 279.0144 13.14502426148010
ONEWEB-0199             
1 48234U 21031AA  24135.57171398 -.00000189  00000+0 -54551-3 0  9996
2 48234  87.8950  81.6287 0002126  79.2678 280.8691 13.14504346147942
ONEWEB-0203             
1 48235U 21031AB  24135.56219611 -.00000098  00000+0 -29969-3 0  9991
2 48235  87.8951  81.6318 0002118  95.9955 264.1416 13.14504907147957
ONEWEB-0197             
1 48236U 21031AC  24135.38538343  .00000271  00000+0  69565-3 0  9995
2 48236  87.8953  81.6754 0001733  73.8353 286.2968 13.14505202147847
ONEWEB-0194             
1 48237U 21031AD  24135.36396592  .00000172  00000+0  43036-3 0  9997
2 48237  87.8950  81.6723 0001924  91.1157 269.0194 13.14505644148018
ONEWEB-0193             
1 48238U 21031AE  24135.37984094  .00000319  00000+0  82524-3 0  9997
2 48238  87.8953  81.6775 0002164  84.9672 275.1705 13.14503749147961
ONEWEB-0191             
1 48239U 21031AF  24135.54317076  .00000149  00000+0  36808-3 0  9992
2 48239  87.8949  81.6296 0002107  83.8103 276.3267 13.14505427147847
ONEWEB-0195             
1 48240U 21031AG  24135.36794559  .00000255  00000+0  65439-3 0  9999
2 48240  87.8947  81.6637 0002504  81.2394 278.9020 13.14504713147809
ONEWEB-0201             
1 48241U 21031AH  24135.35684192 -.00000001  00000+0 -37067-4 0  9998
2 48241  87.8950  81.6993 0002188  80.6527 279.4850 13.14502362148039
ONEWEB-0207             
1 48242U 21031AJ  24135.56458109 -.00000125  00000+0 -37199-3 0  9991
2 48242  87.8952  81.6245 0002021  74.3267 285.8085 13.14504394147979
